;FLAVOR:Marlin
;TIME:21660
;Filament used: 0m
;Layer height: 0.2
;MINX:100
;MINY:100
;MINZ:100
;MAXX:120
;MAXY:120
;MAXZ:100
; generated by OrcaSlicer 2.0.0 (bed hold job, hand-written)
;machine_type:Adventurer 5M
;right_extruder_temperature:0
;platform_temperature:45
; HEADER_BLOCK_START
; generated by OrcaSlicer
; total layer number: 1
; total filament weight [g] : 0
; HEADER_BLOCK_END
; EXECUTABLE_BLOCK_START
M117 Bed hold 45C for 6h
G90 ; absolute
M83 ; relative E
M104 S0 ; nozzle off
M106 S0 ; part fan off
M140 S45 ; bed 45 C
G28 ; home
G1 Z100 F1200 ; head up out of the way
G1 X110 Y110 F3000 ; park over the centre
M190 S45 ; wait for the bed
;LAYER_CHANGE
;Z:100
;HEIGHT:0.2
;LAYER:0
G1 Z100
G4 S60 ; minute 1 of 360
G4 S60 ; minute 2 of 360
G4 S60 ; minute 3 of 360
G4 S60 ; minute 4 of 360
G4 S60 ; minute 5 of 360
G4 S60 ; minute 6 of 360
G4 S60 ; minute 7 of 360
G4 S60 ; minute 8 of 360
G4 S60 ; minute 9 of 360
G4 S60 ; minute 10 of 360
G4 S60 ; minute 11 of 360
G4 S60 ; minute 12 of 360
G4 S60 ; minute 13 of 360
G4 S60 ; minute 14 of 360
G4 S60 ; minute 15 of 360
G4 S60 ; minute 16 of 360
G4 S60 ; minute 17 of 360
G4 S60 ; minute 18 of 360
G4 S60 ; minute 19 of 360
G4 S60 ; minute 20 of 360
M140 S45 ; re-assert bed target
G1 X110 Y110 F600 ; keep-alive nudge
M73 P5 R340
G4 S60 ; minute 21 of 360
G4 S60 ; minute 22 of 360
G4 S60 ; minute 23 of 360
G4 S60 ; minute 24 of 360
G4 S60 ; minute 25 of 360
G4 S60 ; minute 26 of 360
G4 S60 ; minute 27 of 360
G4 S60 ; minute 28 of 360
G4 S60 ; minute 29 of 360
G4 S60 ; minute 30 of 360
G4 S60 ; minute 31 of 360
G4 S60 ; minute 32 of 360
G4 S60 ; minute 33 of 360
G4 S60 ; minute 34 of 360
G4 S60 ; minute 35 of 360
G4 S60 ; minute 36 of 360
G4 S60 ; minute 37 of 360
G4 S60 ; minute 38 of 360
G4 S60 ; minute 39 of 360
G4 S60 ; minute 40 of 360
M140 S45 ; re-assert bed target
G1 X111 Y110 F600 ; keep-alive nudge
M73 P11 R320
G4 S60 ; minute 41 of 360
G4 S60 ; minute 42 of 360
G4 S60 ; minute 43 of 360
G4 S60 ; minute 44 of 360
G4 S60 ; minute 45 of 360
G4 S60 ; minute 46 of 360
G4 S60 ; minute 47 of 360
G4 S60 ; minute 48 of 360
G4 S60 ; minute 49 of 360
G4 S60 ; minute 50 of 360
G4 S60 ; minute 51 of 360
G4 S60 ; minute 52 of 360
G4 S60 ; minute 53 of 360
G4 S60 ; minute 54 of 360
G4 S60 ; minute 55 of 360
G4 S60 ; minute 56 of 360
G4 S60 ; minute 57 of 360
G4 S60 ; minute 58 of 360
G4 S60 ; minute 59 of 360
G4 S60 ; minute 60 of 360
M140 S45 ; re-assert bed target
G1 X110 Y110 F600 ; keep-alive nudge
M73 P16 R300
G4 S60 ; minute 61 of 360
G4 S60 ; minute 62 of 360
G4 S60 ; minute 63 of 360
G4 S60 ; minute 64 of 360
G4 S60 ; minute 65 of 360
G4 S60 ; minute 66 of 360
G4 S60 ; minute 67 of 360
G4 S60 ; minute 68 of 360
G4 S60 ; minute 69 of 360
G4 S60 ; minute 70 of 360
G4 S60 ; minute 71 of 360
G4 S60 ; minute 72 of 360
G4 S60 ; minute 73 of 360
G4 S60 ; minute 74 of 360
G4 S60 ; minute 75 of 360
G4 S60 ; minute 76 of 360
G4 S60 ; minute 77 of 360
G4 S60 ; minute 78 of 360
G4 S60 ; minute 79 of 360
G4 S60 ; minute 80 of 360
M140 S45 ; re-assert bed target
G1 X111 Y110 F600 ; keep-alive nudge
M73 P22 R280
G4 S60 ; minute 81 of 360
G4 S60 ; minute 82 of 360
G4 S60 ; minute 83 of 360
G4 S60 ; minute 84 of 360
G4 S60 ; minute 85 of 360
G4 S60 ; minute 86 of 360
G4 S60 ; minute 87 of 360
G4 S60 ; minute 88 of 360
G4 S60 ; minute 89 of 360
G4 S60 ; minute 90 of 360
G4 S60 ; minute 91 of 360
G4 S60 ; minute 92 of 360
G4 S60 ; minute 93 of 360
G4 S60 ; minute 94 of 360
G4 S60 ; minute 95 of 360
G4 S60 ; minute 96 of 360
G4 S60 ; minute 97 of 360
G4 S60 ; minute 98 of 360
G4 S60 ; minute 99 of 360
G4 S60 ; minute 100 of 360
M140 S45 ; re-assert bed target
G1 X110 Y110 F600 ; keep-alive nudge
M73 P27 R260
G4 S60 ; minute 101 of 360
G4 S60 ; minute 102 of 360
G4 S60 ; minute 103 of 360
G4 S60 ; minute 104 of 360
G4 S60 ; minute 105 of 360
G4 S60 ; minute 106 of 360
G4 S60 ; minute 107 of 360
G4 S60 ; minute 108 of 360
G4 S60 ; minute 109 of 360
G4 S60 ; minute 110 of 360
G4 S60 ; minute 111 of 360
G4 S60 ; minute 112 of 360
G4 S60 ; minute 113 of 360
G4 S60 ; minute 114 of 360
G4 S60 ; minute 115 of 360
G4 S60 ; minute 116 of 360
G4 S60 ; minute 117 of 360
G4 S60 ; minute 118 of 360
G4 S60 ; minute 119 of 360
G4 S60 ; minute 120 of 360
M140 S45 ; re-assert bed target
G1 X111 Y110 F600 ; keep-alive nudge
M73 P33 R240
G4 S60 ; minute 121 of 360
G4 S60 ; minute 122 of 360
G4 S60 ; minute 123 of 360
G4 S60 ; minute 124 of 360
G4 S60 ; minute 125 of 360
G4 S60 ; minute 126 of 360
G4 S60 ; minute 127 of 360
G4 S60 ; minute 128 of 360
G4 S60 ; minute 129 of 360
G4 S60 ; minute 130 of 360
G4 S60 ; minute 131 of 360
G4 S60 ; minute 132 of 360
G4 S60 ; minute 133 of 360
G4 S60 ; minute 134 of 360
G4 S60 ; minute 135 of 360
G4 S60 ; minute 136 of 360
G4 S60 ; minute 137 of 360
G4 S60 ; minute 138 of 360
G4 S60 ; minute 139 of 360
G4 S60 ; minute 140 of 360
M140 S45 ; re-assert bed target
G1 X110 Y110 F600 ; keep-alive nudge
M73 P38 R220
G4 S60 ; minute 141 of 360
G4 S60 ; minute 142 of 360
G4 S60 ; minute 143 of 360
G4 S60 ; minute 144 of 360
G4 S60 ; minute 145 of 360
G4 S60 ; minute 146 of 360
G4 S60 ; minute 147 of 360
G4 S60 ; minute 148 of 360
G4 S60 ; minute 149 of 360
G4 S60 ; minute 150 of 360
G4 S60 ; minute 151 of 360
G4 S60 ; minute 152 of 360
G4 S60 ; minute 153 of 360
G4 S60 ; minute 154 of 360
G4 S60 ; minute 155 of 360
G4 S60 ; minute 156 of 360
G4 S60 ; minute 157 of 360
G4 S60 ; minute 158 of 360
G4 S60 ; minute 159 of 360
G4 S60 ; minute 160 of 360
M140 S45 ; re-assert bed target
G1 X111 Y110 F600 ; keep-alive nudge
M73 P44 R200
G4 S60 ; minute 161 of 360
G4 S60 ; minute 162 of 360
G4 S60 ; minute 163 of 360
G4 S60 ; minute 164 of 360
G4 S60 ; minute 165 of 360
G4 S60 ; minute 166 of 360
G4 S60 ; minute 167 of 360
G4 S60 ; minute 168 of 360
G4 S60 ; minute 169 of 360
G4 S60 ; minute 170 of 360
G4 S60 ; minute 171 of 360
G4 S60 ; minute 172 of 360
G4 S60 ; minute 173 of 360
G4 S60 ; minute 174 of 360
G4 S60 ; minute 175 of 360
G4 S60 ; minute 176 of 360
G4 S60 ; minute 177 of 360
G4 S60 ; minute 178 of 360
G4 S60 ; minute 179 of 360
G4 S60 ; minute 180 of 360
M140 S45 ; re-assert bed target
G1 X110 Y110 F600 ; keep-alive nudge
M73 P50 R180
G4 S60 ; minute 181 of 360
G4 S60 ; minute 182 of 360
G4 S60 ; minute 183 of 360
G4 S60 ; minute 184 of 360
G4 S60 ; minute 185 of 360
G4 S60 ; minute 186 of 360
G4 S60 ; minute 187 of 360
G4 S60 ; minute 188 of 360
G4 S60 ; minute 189 of 360
G4 S60 ; minute 190 of 360
G4 S60 ; minute 191 of 360
G4 S60 ; minute 192 of 360
G4 S60 ; minute 193 of 360
G4 S60 ; minute 194 of 360
G4 S60 ; minute 195 of 360
G4 S60 ; minute 196 of 360
G4 S60 ; minute 197 of 360
G4 S60 ; minute 198 of 360
G4 S60 ; minute 199 of 360
G4 S60 ; minute 200 of 360
M140 S45 ; re-assert bed target
G1 X111 Y110 F600 ; keep-alive nudge
M73 P55 R160
G4 S60 ; minute 201 of 360
G4 S60 ; minute 202 of 360
G4 S60 ; minute 203 of 360
G4 S60 ; minute 204 of 360
G4 S60 ; minute 205 of 360
G4 S60 ; minute 206 of 360
G4 S60 ; minute 207 of 360
G4 S60 ; minute 208 of 360
G4 S60 ; minute 209 of 360
G4 S60 ; minute 210 of 360
G4 S60 ; minute 211 of 360
G4 S60 ; minute 212 of 360
G4 S60 ; minute 213 of 360
G4 S60 ; minute 214 of 360
G4 S60 ; minute 215 of 360
G4 S60 ; minute 216 of 360
G4 S60 ; minute 217 of 360
G4 S60 ; minute 218 of 360
G4 S60 ; minute 219 of 360
G4 S60 ; minute 220 of 360
M140 S45 ; re-assert bed target
G1 X110 Y110 F600 ; keep-alive nudge
M73 P61 R140
G4 S60 ; minute 221 of 360
G4 S60 ; minute 222 of 360
G4 S60 ; minute 223 of 360
G4 S60 ; minute 224 of 360
G4 S60 ; minute 225 of 360
G4 S60 ; minute 226 of 360
G4 S60 ; minute 227 of 360
G4 S60 ; minute 228 of 360
G4 S60 ; minute 229 of 360
G4 S60 ; minute 230 of 360
G4 S60 ; minute 231 of 360
G4 S60 ; minute 232 of 360
G4 S60 ; minute 233 of 360
G4 S60 ; minute 234 of 360
G4 S60 ; minute 235 of 360
G4 S60 ; minute 236 of 360
G4 S60 ; minute 237 of 360
G4 S60 ; minute 238 of 360
G4 S60 ; minute 239 of 360
G4 S60 ; minute 240 of 360
M140 S45 ; re-assert bed target
G1 X111 Y110 F600 ; keep-alive nudge
M73 P66 R120
G4 S60 ; minute 241 of 360
G4 S60 ; minute 242 of 360
G4 S60 ; minute 243 of 360
G4 S60 ; minute 244 of 360
G4 S60 ; minute 245 of 360
G4 S60 ; minute 246 of 360
G4 S60 ; minute 247 of 360
G4 S60 ; minute 248 of 360
G4 S60 ; minute 249 of 360
G4 S60 ; minute 250 of 360
G4 S60 ; minute 251 of 360
G4 S60 ; minute 252 of 360
G4 S60 ; minute 253 of 360
G4 S60 ; minute 254 of 360
G4 S60 ; minute 255 of 360
G4 S60 ; minute 256 of 360
G4 S60 ; minute 257 of 360
G4 S60 ; minute 258 of 360
G4 S60 ; minute 259 of 360
G4 S60 ; minute 260 of 360
M140 S45 ; re-assert bed target
G1 X110 Y110 F600 ; keep-alive nudge
M73 P72 R100
G4 S60 ; minute 261 of 360
G4 S60 ; minute 262 of 360
G4 S60 ; minute 263 of 360
G4 S60 ; minute 264 of 360
G4 S60 ; minute 265 of 360
G4 S60 ; minute 266 of 360
G4 S60 ; minute 267 of 360
G4 S60 ; minute 268 of 360
G4 S60 ; minute 269 of 360
G4 S60 ; minute 270 of 360
G4 S60 ; minute 271 of 360
G4 S60 ; minute 272 of 360
G4 S60 ; minute 273 of 360
G4 S60 ; minute 274 of 360
G4 S60 ; minute 275 of 360
G4 S60 ; minute 276 of 360
G4 S60 ; minute 277 of 360
G4 S60 ; minute 278 of 360
G4 S60 ; minute 279 of 360
G4 S60 ; minute 280 of 360
M140 S45 ; re-assert bed target
G1 X111 Y110 F600 ; keep-alive nudge
M73 P77 R80
G4 S60 ; minute 281 of 360
G4 S60 ; minute 282 of 360
G4 S60 ; minute 283 of 360
G4 S60 ; minute 284 of 360
G4 S60 ; minute 285 of 360
G4 S60 ; minute 286 of 360
G4 S60 ; minute 287 of 360
G4 S60 ; minute 288 of 360
G4 S60 ; minute 289 of 360
G4 S60 ; minute 290 of 360
G4 S60 ; minute 291 of 360
G4 S60 ; minute 292 of 360
G4 S60 ; minute 293 of 360
G4 S60 ; minute 294 of 360
G4 S60 ; minute 295 of 360
G4 S60 ; minute 296 of 360
G4 S60 ; minute 297 of 360
G4 S60 ; minute 298 of 360
G4 S60 ; minute 299 of 360
G4 S60 ; minute 300 of 360
M140 S45 ; re-assert bed target
G1 X110 Y110 F600 ; keep-alive nudge
M73 P83 R60
G4 S60 ; minute 301 of 360
G4 S60 ; minute 302 of 360
G4 S60 ; minute 303 of 360
G4 S60 ; minute 304 of 360
G4 S60 ; minute 305 of 360
G4 S60 ; minute 306 of 360
G4 S60 ; minute 307 of 360
G4 S60 ; minute 308 of 360
G4 S60 ; minute 309 of 360
G4 S60 ; minute 310 of 360
G4 S60 ; minute 311 of 360
G4 S60 ; minute 312 of 360
G4 S60 ; minute 313 of 360
G4 S60 ; minute 314 of 360
G4 S60 ; minute 315 of 360
G4 S60 ; minute 316 of 360
G4 S60 ; minute 317 of 360
G4 S60 ; minute 318 of 360
G4 S60 ; minute 319 of 360
G4 S60 ; minute 320 of 360
M140 S45 ; re-assert bed target
G1 X111 Y110 F600 ; keep-alive nudge
M73 P88 R40
G4 S60 ; minute 321 of 360
G4 S60 ; minute 322 of 360
G4 S60 ; minute 323 of 360
G4 S60 ; minute 324 of 360
G4 S60 ; minute 325 of 360
G4 S60 ; minute 326 of 360
G4 S60 ; minute 327 of 360
G4 S60 ; minute 328 of 360
G4 S60 ; minute 329 of 360
G4 S60 ; minute 330 of 360
G4 S60 ; minute 331 of 360
G4 S60 ; minute 332 of 360
G4 S60 ; minute 333 of 360
G4 S60 ; minute 334 of 360
G4 S60 ; minute 335 of 360
G4 S60 ; minute 336 of 360
G4 S60 ; minute 337 of 360
G4 S60 ; minute 338 of 360
G4 S60 ; minute 339 of 360
G4 S60 ; minute 340 of 360
M140 S45 ; re-assert bed target
G1 X110 Y110 F600 ; keep-alive nudge
M73 P94 R20
G4 S60 ; minute 341 of 360
G4 S60 ; minute 342 of 360
G4 S60 ; minute 343 of 360
G4 S60 ; minute 344 of 360
G4 S60 ; minute 345 of 360
G4 S60 ; minute 346 of 360
G4 S60 ; minute 347 of 360
G4 S60 ; minute 348 of 360
G4 S60 ; minute 349 of 360
G4 S60 ; minute 350 of 360
G4 S60 ; minute 351 of 360
G4 S60 ; minute 352 of 360
G4 S60 ; minute 353 of 360
G4 S60 ; minute 354 of 360
G4 S60 ; minute 355 of 360
G4 S60 ; minute 356 of 360
G4 S60 ; minute 357 of 360
G4 S60 ; minute 358 of 360
G4 S60 ; minute 359 of 360
G4 S60 ; minute 360 of 360
M140 S45 ; re-assert bed target
G1 X111 Y110 F600 ; keep-alive nudge
M73 P100 R0
M140 S0 ; bed off
M104 S0
M107
G1 Z110 F600
M84 ; motors off
M117 Bed hold finished
; EXECUTABLE_BLOCK_END
; CONFIG_BLOCK_START
; accel_to_decel_enable = 0
; accel_to_decel_factor = 50%
; activate_air_filtration = 0
; activate_air_filtration_during_print = 1
; activate_air_filtration_on_completion = 1
; activate_chamber_temp_control = 0
; adaptive_bed_mesh_margin = 0
; adaptive_pressure_advance = 0
; adaptive_pressure_advance_bridges = 0
; adaptive_pressure_advance_model = 0,0,0\n0,0,0
; adaptive_pressure_advance_overhangs = 0
; additional_cooling_fan_speed = 70
; additional_fan_full_speed_layer = 0
; align_infill_direction_to_model = 0
; alternate_extra_wall = 0
; auxiliary_fan = 1
; bbl_calib_mark_logo = 1
; bbl_use_printhost = 0
; bed_custom_model = 
; bed_custom_texture = 
; bed_exclude_area = 0x0
; bed_mesh_max = 99999,99999
; bed_mesh_min = -99999,-99999
; bed_mesh_probe_distance = 50,50
; bed_temperature_formula = by_highest_temp
; before_layer_change_gcode = ;BEFORE_LAYER_CHANGE\n;[layer_z]
; best_object_pos = 0.5,0.5
; bottom_shell_layers = 3
; bottom_shell_thickness = 0
; bottom_solid_infill_flow_ratio = 1
; bottom_surface_density = 100%
; bottom_surface_filament_id = 0
; bottom_surface_pattern = monotonic
; bridge_acceleration = 50%
; bridge_angle = 0
; bridge_density = 100%
; bridge_flow = 1
; bridge_line_width = 100%
; bridge_no_support = 0
; bridge_speed = 25
; brim_ears_detection_length = 1
; brim_ears_max_angle = 125
; brim_flow_ratio = 1
; brim_object_gap = 0.1
; brim_type = outer_only
; brim_use_efc_outline = 0
; brim_width = 3
; calib_flowrate_topinfill_special_order = 0
; chamber_minimal_temperature = 0
; chamber_temperature = 0
; change_extrusion_role_gcode = 
; change_filament_gcode = 
; close_additional_fan_first_x_layers = 1
; close_fan_the_first_x_layers = 1
; combine_brims = 0
; compatible_machine_expression_group = ,not ((printer_model == "Flashforge Creator 5" or printer_model == "Flashforge Creator 5 Pro") and printer_variant == "0.25")
; complete_print_exhaust_fan_speed = 70
; cool_plate_temp = 35
; cool_plate_temp_initial_layer = 35
; cooling_tube_length = 0
; cooling_tube_retraction = 0
; counterbore_hole_bridging = none
; curr_bed_type = Textured PEI Plate
; default_acceleration = 10000
; default_bed_type = 
; default_filament_colour = 
; default_filament_profile = Flashforge Generic PLA
; default_jerk = 0
; default_junction_deviation = 0
; default_nozzle_volume_type = Standard
; default_print_profile = 0.20mm Standard @Flashforge AD5M 0.4 Nozzle
; deretraction_speed = 30
; detect_narrow_internal_solid_infill = 1
; detect_overhang_wall = 1
; detect_thin_wall = 0
; different_settings_to_system = brim_type;brim_width;layer_height;wall_loops,,
; disable_m73 = 0
; dithering_local_z_direct_multicolor = 0
; dithering_local_z_mode = 0
; dithering_local_z_whole_objects = 0
; dithering_step_painted_zones_only = 1
; dithering_z_step_size = 0
; dont_filter_internal_bridges = disabled
; dont_slow_down_outer_wall = 0
; draft_shield = disabled
; during_print_exhaust_fan_speed = 70
; elefant_foot_compensation = 0.15
; elefant_foot_compensation_layers = 1
; elefant_foot_layers_density = 100%
; emit_machine_limits_to_gcode = 1
; enable_arc_fitting = 0
; enable_extra_bridge_layer = disabled
; enable_filament_ramming = 0
; enable_infill_filament_override = 0
; enable_long_retraction_when_cut = 0
; enable_overhang_bridge_fan = 1
; enable_overhang_speed = 1
; enable_power_loss_recovery = printer_configuration
; enable_pressure_advance = 0
; enable_prime_tower = 0
; enable_support = 0
; enable_tower_interface_cooldown_during_tower = 0
; enable_tower_interface_features = 0
; enable_wrapping_detection = 0
; enforce_support_layers = 0
; eng_plate_temp = 0
; eng_plate_temp_initial_layer = 0
; ensure_vertical_shell_thickness = ensure_all
; exclude_object = 0
; extra_loading_move = 0
; extra_perimeters_on_overhangs = 0
; extra_solid_infills = 
; extruder_ams_count = 1#0|4#0,1#0|4#0
; extruder_clearance_height_to_lid = 150
; extruder_clearance_height_to_rod = 27
; extruder_clearance_radius = 76
; extruder_colour = #FCE94F
; extruder_offset = 0x0
; extruder_printable_area = 
; extruder_printable_height = 0
; extruder_type = Direct Drive
; extruder_variant_list = Direct Drive Standard
; extrusion_rate_smoothing_external_perimeter_only = 0
; fan_cooling_layer_time = 100
; fan_kickstart = 0
; fan_max_speed = 100
; fan_min_speed = 100
; fan_speedup_overhangs = 1
; fan_speedup_time = 0
; filament_adaptive_volumetric_speed = 0
; filament_adhesiveness_category = 0
; filament_change_extrusion_role_gcode = 
; filament_change_length = 0
; filament_colour = #26A69A
; filament_colour_type = 1
; filament_cooling_before_tower = 10
; filament_cooling_final_speed = 3.4
; filament_cooling_initial_speed = 2.2
; filament_cooling_moves = 4
; filament_cost = 20
; filament_density = 1.24
; filament_deretraction_speed = nil
; filament_diameter = 1.75
; filament_end_gcode = ; filament end gcode\n
; filament_extruder_variant = Direct Drive Standard
; filament_flow_ratio = 0.98
; filament_flush_temp = 0
; filament_flush_volumetric_speed = 0
; filament_ids = GFL99
; filament_ironing_flow = nil
; filament_ironing_inset = nil
; filament_ironing_spacing = nil
; filament_ironing_speed = nil
; filament_is_support = 0
; filament_loading_speed = 28
; filament_loading_speed_start = 3
; filament_long_retractions_when_cut = nil
; filament_map = 1
; filament_map_mode = Auto For Flush
; filament_max_volumetric_speed = 12
; filament_minimal_purge_on_wipe_tower = 15
; filament_multi_colour = #26A69A
; filament_multitool_ramming = 0
; filament_multitool_ramming_flow = 10
; filament_multitool_ramming_volume = 10
; filament_notes = 
; filament_printable = 3
; filament_ramming_parameters = 120 100 6.6 6.8 7.2 7.6 7.9 8.2 8.7 9.4 9.9 10.0| 0.05 6.6 0.45 6.8 0.95 7.8 1.45 8.3 1.95 9.7 2.45 10 2.95 7.6 3.45 7.6 3.95 7.6 4.45 7.6 4.95 7.6
; filament_retract_before_wipe = nil
; filament_retract_lift_above = nil
; filament_retract_lift_below = nil
; filament_retract_lift_enforce = nil
; filament_retract_restart_extra = nil
; filament_retract_when_changing_layer = nil
; filament_retraction_distances_when_cut = nil
; filament_retraction_length = nil
; filament_retraction_minimum_travel = nil
; filament_retraction_speed = nil
; filament_self_index = 1
; filament_settings_id = Generic PLA @System
; filament_shrink = 100%
; filament_shrinkage_compensation_z = 100%
; filament_soluble = 0
; filament_stamping_distance = 0
; filament_stamping_loading_speed = 0
; filament_start_gcode = ; Filament gcode\n
; filament_toolchange_delay = 0
; filament_tower_interface_pre_extrusion_dist = 10
; filament_tower_interface_pre_extrusion_length = 0
; filament_tower_interface_print_temp = -1
; filament_tower_interface_purge_volume = 20
; filament_tower_ironing_area = 4
; filament_type = PLA
; filament_unloading_speed = 90
; filament_unloading_speed_start = 100
; filament_vendor = Generic
; filament_wipe = nil
; filament_wipe_distance = nil
; filament_z_hop = nil
; filament_z_hop_types = nil
; file_start_gcode = 
; filename_format = {input_filename_base}.gcode
; fill_multiline = 1
; filter_out_gap_fill = 0.5
; first_layer_flow_ratio = 1
; first_layer_print_sequence = 0
; first_x_layer_fan_speed = 0
; flashforge_serial_number = 
; flush_into_infill = 0
; flush_into_objects = 0
; flush_into_support = 1
; flush_multiplier = 0.3
; flush_volumes_matrix = 0
; flush_volumes_vector = 140,140
; from = project
; full_fan_speed_layer = 0
; fuzzy_skin = disabled_fuzzy
; fuzzy_skin_first_layer = 0
; fuzzy_skin_layers_between_ripple_offset = 1
; fuzzy_skin_mode = displacement
; fuzzy_skin_noise_type = classic
; fuzzy_skin_octaves = 4
; fuzzy_skin_persistence = 0.5
; fuzzy_skin_point_distance = 0.3
; fuzzy_skin_ripple_offset = 50%
; fuzzy_skin_ripples_per_layer = 15
; fuzzy_skin_scale = 1
; fuzzy_skin_thickness = 0.2
; gap_fill_flow_ratio = 1
; gap_fill_target = nowhere
; gap_infill_speed = 200
; gcode_add_line_number = 0
; gcode_comments = 0
; gcode_flavor = klipper
; gcode_label_objects = 0
; grab_length = 0
; gyroid_optimized = 0
; has_scarf_joint_seam = 0
; head_wrap_detect_zone = 
; high_current_on_filament_swap = 0
; hole_to_polyhole = 0
; hole_to_polyhole_threshold = 0.01
; hole_to_polyhole_twisted = 1
; host_type = octoprint
; hot_plate_temp = 55
; hot_plate_temp_initial_layer = 55
; idle_temperature = 0
; independent_support_layer_height = 1
; infill_anchor = 400%
; infill_anchor_max = 20
; infill_combination = 0
; infill_combination_max_layer_height = 100%
; infill_direction = 45
; infill_filament_use_base_first_layers = 0
; infill_filament_use_base_last_layers = 0
; infill_jerk = 9
; infill_lock_depth = 1
; infill_overhang_angle = 60
; infill_shift_step = 0.4
; infill_wall_overlap = 50%
; inherits_group = 0.12mm Fine @Flashforge AD5M 0.4 Nozzle,,
; initial_layer_acceleration = 500
; initial_layer_infill_speed = 80
; initial_layer_jerk = 9
; initial_layer_line_width = 0.5
; initial_layer_min_bead_width = 85%
; initial_layer_print_height = 0.3
; initial_layer_speed = 50
; initial_layer_travel_acceleration = 100%
; initial_layer_travel_jerk = 100%
; initial_layer_travel_speed = 100%
; inner_wall_acceleration = 5000
; inner_wall_filament_id = 0
; inner_wall_flow_ratio = 1
; inner_wall_jerk = 9
; inner_wall_line_width = 0.45
; inner_wall_speed = 300
; input_shaping_damp_x = 0.1
; input_shaping_damp_y = 0.1
; input_shaping_emit = 0
; input_shaping_freq_x = 0
; input_shaping_freq_y = 0
; input_shaping_type = Default
; interface_shells = 0
; interlocking_beam = 0
; interlocking_beam_layer_count = 2
; interlocking_beam_width = 0.8
; interlocking_boundary_avoidance = 2
; interlocking_depth = 2
; interlocking_orientation = 22.5
; internal_bridge_angle = 0
; internal_bridge_density = 100%
; internal_bridge_fan_speed = -1
; internal_bridge_flow = 1
; internal_bridge_speed = 50
; internal_solid_filament_id = 0
; internal_solid_infill_acceleration = 7000
; internal_solid_infill_flow_ratio = 1
; internal_solid_infill_line_width = 0.42
; internal_solid_infill_pattern = monotonic
; internal_solid_infill_speed = 250
; ironing_angle = 0
; ironing_angle_fixed = 0
; ironing_expansion = 0
; ironing_fan_speed = -1
; ironing_flow = 15%
; ironing_inset = 0
; ironing_pattern = rectilinear
; ironing_spacing = 0.1
; ironing_speed = 15
; ironing_type = no ironing
; is_infill_first = 0
; lateral_lattice_angle_1 = -45
; lateral_lattice_angle_2 = 45
; layer_change_gcode = ;AFTER_LAYER_CHANGE\n;[layer_z]
; layer_height = 0.16
; lightning_overhang_angle = 45
; lightning_prune_angle = 45
; lightning_straightening_angle = 45
; line_width = 0.42
; local_z_wipe_tower_purge_lines = 3
; long_retractions_when_cut = 0
; long_retractions_when_ec = 0
; machine_end_gcode = G1 E-3 F3600\nG0 X50 Y50 F30000\nM104 S0 ; turn off temperature
; machine_load_filament_time = 0
; machine_max_acceleration_e = 5000,5000
; machine_max_acceleration_extruding = 20000,20000
; machine_max_acceleration_retracting = 5000,5000
; machine_max_acceleration_travel = 20000,20000
; machine_max_acceleration_x = 20000,20000
; machine_max_acceleration_y = 20000,20000
; machine_max_acceleration_z = 500,500
; machine_max_jerk_e = 2.5,2.5
; machine_max_jerk_x = 9,9
; machine_max_jerk_y = 9,9
; machine_max_jerk_z = 3,3
; machine_max_junction_deviation = 0.01
; machine_max_speed_e = 30,30
; machine_max_speed_x = 600,600
; machine_max_speed_y = 600,600
; machine_max_speed_z = 20,20
; machine_min_extruding_rate = 0,0
; machine_min_travel_rate = 0,0
; machine_pause_gcode = PAUSE
; machine_start_gcode = M190 S[bed_temperature_initial_layer_single]\nM109 S[nozzle_temperature_initial_layer]\nG90\nM83\nG1 Z5 F6000\nG1 E-0.2 F800\nG1 X110 Y-110 F6000\nG1 E2 F800\nG1 Y-110 X55 Z0.25 F4800\nG1 X-55 E8 F2400\nG1 Y-109.6 F2400\nG1 X55 E5 F2400\nG1 Y-110 X55 Z0.45 F4800\nG1 X-55 E8 F2400\nG1 Y-109.6 F2400\nG1 X55 E5 F2400\nG92 E0
; machine_tool_change_time = 0
; machine_unload_filament_time = 0
; make_overhang_printable = 0
; make_overhang_printable_angle = 55
; make_overhang_printable_hole_size = 0
; manual_filament_change = 0
; master_extruder_id = 1
; max_bridge_length = 10
; max_layer_height = 0.28
; max_resonance_avoidance_speed = 120
; max_travel_detour_distance = 0
; max_volumetric_extrusion_rate_slope = 0
; max_volumetric_extrusion_rate_slope_segment_length = 3
; min_bead_width = 85%
; min_feature_size = 25%
; min_layer_height = 0.08
; min_length_factor = 0.5
; min_resonance_avoidance_speed = 70
; min_skirt_length = 0
; min_width_top_surface = 300%
; minimum_sparse_infill_area = 15
; mixed_color_layer_height_a = 0
; mixed_color_layer_height_b = 0
; mixed_filament_advanced_dithering = 0
; mixed_filament_component_bias_enabled = 0
; mixed_filament_definitions = 
; mixed_filament_gradient_mode = 0
; mixed_filament_height_lower_bound = 0.04
; mixed_filament_height_upper_bound = 0.16
; mixed_filament_pointillism_line_gap = 0
; mixed_filament_pointillism_pixel_size = 0
; mixed_filament_region_collapse = 1
; mixed_filament_surface_indentation = 0
; mmu_segmented_region_interlocking_depth = 0
; mmu_segmented_region_max_width = 0
; name = project_settings
; notes = 
; nozzle_diameter = 0.4
; nozzle_flush_dataset = 0
; nozzle_height = 2.5
; nozzle_hrc = 0
; nozzle_temperature = 220
; nozzle_temperature_initial_layer = 220
; nozzle_temperature_range_high = 240
; nozzle_temperature_range_low = 190
; nozzle_type = stainless_steel
; nozzle_volume = 0
; nozzle_volume_type = Standard
; only_one_wall_first_layer = 0
; only_one_wall_top = 0
; ooze_prevention = 0
; other_layers_print_sequence = 0
; other_layers_print_sequence_nums = 0
; outer_wall_acceleration = 5000
; outer_wall_filament_id = 0
; outer_wall_flow_ratio = 1
; outer_wall_jerk = 9
; outer_wall_line_width = 0.42
; outer_wall_speed = 200
; overhang_1_4_speed = 0
; overhang_2_4_speed = 40
; overhang_3_4_speed = 20
; overhang_4_4_speed = 10
; overhang_fan_speed = 100
; overhang_fan_threshold = 50%
; overhang_flow_ratio = 1
; overhang_reverse = 0
; overhang_reverse_internal_only = 0
; overhang_reverse_threshold = 50%
; parallel_printheads_bed_exclude_areas = 
; parallel_printheads_count = 1
; parking_pos_retraction = 0
; part_cooling_fan_min_pwm = 0
; pellet_flow_coefficient = 0.4157
; pellet_modded_printer = 0
; physical_extruder_map = 0
; post_process = 
; precise_outer_wall = 1
; precise_z_height = 0
; preferred_orientation = 0
; preheat_steps = 1
; preheat_time = 30
; pressure_advance = 0.02
; prime_tower_brim_width = 3
; prime_tower_enable_framework = 0
; prime_tower_flat_ironing = 0
; prime_tower_infill_gap = 150%
; prime_tower_skip_points = 1
; prime_tower_width = 60
; prime_volume = 45
; print_compatible_printers = Flashforge Adventurer 5M 0.4 Nozzle
; print_extruder_id = 1
; print_extruder_variant = Direct Drive Standard
; print_flow_ratio = 1
; print_order = default
; print_sequence = by layer
; print_settings_id = 0.12mm Fine @Flashforge AD5M 0.4 Nozzle - Band
; printable_area = -110x-110,110x-110,110x110,-110x110
; printable_height = 220
; printer_agent = 
; printer_extruder_id = 1
; printer_extruder_variant = Direct Drive Standard
; printer_model = Flashforge Adventurer 5M
; printer_notes = 
; printer_settings_id = Flashforge Adventurer 5M 0.4 Nozzle
; printer_structure = undefine
; printer_technology = FFF
; printer_variant = 0.4
; printhost_authorization_type = key
; printhost_ssl_ignore_revoke = 0
; printing_by_object_gcode = 
; process_change_extrusion_role_gcode = 
; purge_in_prime_tower = 1
; raft_contact_distance = 0.1
; raft_expansion = 1.5
; raft_first_layer_density = 90%
; raft_first_layer_expansion = 2
; raft_layers = 0
; reduce_crossing_wall = 0
; reduce_fan_stop_start_freq = 1
; reduce_infill_retraction = 1
; relative_bridge_angle = 0
; required_nozzle_HRC = 3
; resolution = 0.012
; resonance_avoidance = 0
; retract_before_wipe = 100%
; retract_length_toolchange = 2
; retract_lift_above = 0
; retract_lift_below = 0
; retract_lift_enforce = All Surfaces
; retract_restart_extra = 0
; retract_restart_extra_toolchange = 0
; retract_when_changing_layer = 1
; retraction_distances_when_cut = 18
; retraction_distances_when_ec = 10
; retraction_length = 0.8
; retraction_minimum_travel = 1
; retraction_speed = 30
; role_based_wipe_speed = 1
; scan_first_layer = 0
; scarf_angle_threshold = 155
; scarf_joint_flow_ratio = 1
; scarf_joint_speed = 100%
; scarf_overhang_threshold = 40%
; seam_gap = 10%
; seam_position = aligned
; seam_slope_conditional = 0
; seam_slope_entire_loop = 0
; seam_slope_inner_walls = 0
; seam_slope_min_length = 20
; seam_slope_start_height = 0
; seam_slope_steps = 10
; seam_slope_type = none
; set_other_flow_ratios = 0
; silent_mode = 0
; single_extruder_multi_material = 0
; single_extruder_multi_material_priming = 0
; single_loop_draft_shield = 0
; skeleton_infill_density = 25%
; skeleton_infill_line_width = 100%
; skin_infill_density = 25%
; skin_infill_depth = 2
; skin_infill_line_width = 100%
; skirt_distance = 2
; skirt_height = 1
; skirt_loops = 0
; skirt_speed = 50
; skirt_start_angle = -135
; skirt_type = combined
; slice_closing_radius = 0.049
; slicing_mode = regular
; slow_down_for_layer_cooling = 1
; slow_down_layer_time = 4
; slow_down_layers = 1
; slow_down_min_speed = 10
; slowdown_for_curled_perimeters = 0
; small_area_infill_flow_compensation = 0
; small_area_infill_flow_compensation_model = 0,0,\n0.2,0.4444,\n0.4,0.6145,\n0.6,0.7059,\n0.8,0.7619,\n1.5,0.8571,\n2,0.8889,\n3,0.9231,\n5,0.9520,\n10,1
; small_perimeter_speed = 50%
; small_perimeter_threshold = 0
; solid_infill_direction = 45
; solid_infill_filament = 0
; solid_infill_rotate_template = 
; sparse_infill_acceleration = 100%
; sparse_infill_density = 15%
; sparse_infill_filament = 0
; sparse_infill_filament_id = 0
; sparse_infill_flow_ratio = 1
; sparse_infill_line_width = 0.45
; sparse_infill_pattern = grid
; sparse_infill_rotate_template = 
; sparse_infill_speed = 270
; spiral_finishing_flow_ratio = 0
; spiral_mode = 0
; spiral_mode_max_xy_smoothing = 200%
; spiral_mode_smooth = 0
; spiral_starting_flow_ratio = 0
; staggered_inner_seams = 0
; standby_temperature_delta = -5
; start_end_points = 30x-3,54x245
; supertack_plate_temp = 45
; supertack_plate_temp_initial_layer = 45
; support_air_filtration = 1
; support_angle = 0
; support_base_pattern = rectilinear
; support_base_pattern_spacing = 2.5
; support_bottom_interface_spacing = 0.3
; support_bottom_z_distance = 0.15
; support_chamber_temp_control = 1
; support_critical_regions_only = 0
; support_expansion = 0
; support_filament = 0
; support_flow_ratio = 1
; support_interface_bottom_layers = 0
; support_interface_filament = 0
; support_interface_flow_ratio = 1
; support_interface_loop_pattern = 0
; support_interface_not_for_body = 1
; support_interface_pattern = auto
; support_interface_spacing = 0.3
; support_interface_speed = 40
; support_interface_top_layers = 3
; support_ironing = 0
; support_ironing_flow = 10%
; support_ironing_pattern = rectilinear
; support_ironing_spacing = 0.1
; support_line_width = 0.42
; support_material_interface_fan_speed = -1
; support_multi_bed_types = 1
; support_object_first_layer_gap = 0.2
; support_object_skip_flush = 0
; support_object_xy_distance = 0.3
; support_on_build_plate_only = 0
; support_parallel_printheads = 0
; support_remove_small_overhang = 1
; support_speed = 100
; support_style = default
; support_threshold_angle = 30
; support_threshold_overlap = 50%
; support_top_z_distance = 0.15
; support_type = normal(auto)
; symmetric_infill_y_axis = 0
; temperature_vitrification = 45
; template_custom_gcode = 
; textured_cool_plate_temp = 40
; textured_cool_plate_temp_initial_layer = 40
; textured_plate_temp = 55
; textured_plate_temp_initial_layer = 55
; thick_bridges = 0
; thick_internal_bridges = 1
; thumbnails = 140x110/PNG
; thumbnails_format = PNG
; time_cost = 0
; time_lapse_gcode = 
; timelapse_type = 0
; tool_change_on_wipe_tower = 0
; top_bottom_infill_wall_overlap = 25%
; top_shell_layers = 5
; top_shell_thickness = 1
; top_solid_infill_flow_ratio = 1
; top_surface_acceleration = 2000
; top_surface_density = 100%
; top_surface_filament_id = 0
; top_surface_jerk = 9
; top_surface_line_width = 0.42
; top_surface_pattern = monotonicline
; top_surface_speed = 200
; travel_acceleration = 10000
; travel_jerk = 12
; travel_slope = 3
; travel_speed = 500
; travel_speed_z = 0
; tree_support_angle_slow = 25
; tree_support_auto_brim = 1
; tree_support_branch_angle = 45
; tree_support_branch_angle_organic = 40
; tree_support_branch_diameter = 5
; tree_support_branch_diameter_angle = 5
; tree_support_branch_diameter_organic = 2
; tree_support_branch_distance = 5
; tree_support_branch_distance_organic = 1
; tree_support_brim_width = 3
; tree_support_tip_diameter = 0.8
; tree_support_top_rate = 30%
; tree_support_wall_count = 0
; upward_compatible_machine = 
; use_3mf = 0
; use_firmware_retraction = 0
; use_relative_e_distances = 1
; version = 02.06.00.51
; volumetric_speed_coefficients = 
; wall_direction = ccw
; wall_distribution_count = 1
; wall_filament = 0
; wall_generator = classic
; wall_loops = 3
; wall_maximum_deviation = 0.025
; wall_maximum_resolution = 0.5
; wall_sequence = inner wall/outer wall
; wall_transition_angle = 10
; wall_transition_filter_deviation = 25%
; wall_transition_length = 100%
; wipe = 1
; wipe_before_external_loop = 0
; wipe_distance = 2
; wipe_on_loops = 0
; wipe_speed = 200
; wipe_tower_bridging = 10
; wipe_tower_cone_angle = 30
; wipe_tower_extra_flow = 100%
; wipe_tower_extra_rib_length = 0
; wipe_tower_extra_spacing = 100%
; wipe_tower_filament = 0
; wipe_tower_fillet_wall = 1
; wipe_tower_max_purge_speed = 90
; wipe_tower_no_sparse_layers = 0
; wipe_tower_rib_width = 8
; wipe_tower_rotation_angle = 0
; wipe_tower_type = type1
; wipe_tower_wall_type = rib
; wipe_tower_x = 79.8036
; wipe_tower_y = 79.8036
; wiping_volumes_extruders = 70,70,70,70,70,70,70,70,70,70
; wrapping_detection_gcode = 
; wrapping_detection_layers = 20
; wrapping_exclude_area = 
; xy_contour_compensation = 0
; xy_hole_compensation = 0
; z_hop = 0.4
; z_hop_types = Auto Lift
; z_offset = 0
; zaa_dont_alternate_fill_direction = 0
; zaa_enabled = 0
; zaa_min_z = 0.05
; zaa_minimize_perimeter_height = 35
; CONFIG_BLOCK_END
